{"type": "FeatureCollection", "features": [ {"type": "Feature", "properties": {"norad_id": 35060, "name": "COSMOS 2251 DEB", "group": "cosmos-2251-debris", "lat": 69.7661365308699, "lon": -89.57723274509752, "alt_km": 755.4734121921392, "timestamp": "2025-12-26T03:50:12.490112+00:00", "meta": {"OBJECT_NAME": "COSMOS 2251 DEB", "OBJECT_ID": "1993-036AHP", "EPOCH": "2025-12-23T23:50:58.864704", "MEAN_MOTION": 14.416228, "ECCENTRICITY": 0.00187381, "INCLINATION": 74.0364, "RA_OF_ASC_NODE": 223.4863, "ARG_OF_PERICENTER": 306.8479, "MEAN_ANOMALY": 53.0958, "EPHEMERIS_TYPE": 0, "CLASSIFICATION_TYPE": "U", "NORAD_CAT_ID": 35060, "ELEMENT_SET_NO": 999, "REV_AT_EPOCH": 87404, "BSTAR": 0.0002601881, "MEAN_MOTION_DOT": 8.22e-06, "MEAN_MOTION_DDOT": 0}, "tle": {"line1": "1 35060U 93036AHP 25357.99373686  .00000822  00000+0  26019-3 0  9990", "line2": "2 35060  74.0364 223.4863 0018738 306.8479  53.0958 14.41622800874043"}}, "geometry": {"type": "Point", "coordinates": [-89.57723274509752, 69.7661365308699]}}, {"type": "Feature", "properties": {"norad_id": 35061, "name": "COSMOS 2251 DEB", "group": "cosmos-2251-debris", "lat": 28.968158572197588, "lon": 90.69483076055107, "alt_km": 680.9794888805945, "timestamp": "2025-12-26T03:50:12.490123+00:00", "meta": {"OBJECT_NAME": "COSMOS 2251 DEB", "OBJECT_ID": "1993-036AHQ", "EPOCH": "2025-12-25T12:26:22.141248", "MEAN_MOTION": 14.67934015, "ECCENTRICITY": 0.003974, "INCLINATION": 74.0461, "RA_OF_ASC_NODE": 281.0451, "ARG_OF_PERICENTER": 28.402, "MEAN_ANOMALY": 331.9304, "EPHEMERIS_TYPE": 0, "CLASSIFICATION_TYPE": "U", "NORAD_CAT_ID": 35061, "ELEMENT_SET_NO": 999, "REV_AT_EPOCH": 88762, "BSTAR": 0.00083709, "MEAN_MOTION_DOT": 4.819e-05, "MEAN_MOTION_DDOT": 0}, "tle": {"line1": "1 35061U 93036AHQ 25359.51831182  .00004819  00000+0  83709-3 0  9990", "line2": "2 35061  74.0461 281.0451 0039740  28.4020 331.9304 14.67934015887623"}}, "geometry": {"type": "Point", "coordinates": [90.69483076055107, 28.968158572197588]}}, {"type": "Feature", "properties": {"norad_id": 35062, "name": "COSMOS 2251 DEB", "group": "cosmos-2251-debris", "lat": -18.981023322072424, "lon": -105.18290492066843, "alt_km": 883.1276525207459, "timestamp": "2025-12-26T03:50:12.490134+00:00", "meta": {"OBJECT_NAME": "COSMOS 2251 DEB", "OBJECT_ID": "1993-036AHR", "EPOCH": "2025-12-25T04:58:43.946112", "MEAN_MOTION": 14.23029012, "ECCENTRICITY": 0.0126046, "INCLINATION": 74.0785, "RA_OF_ASC_NODE": 70.8899, "ARG_OF_PERICENTER": 66.8027, "MEAN_ANOMALY": 294.6336, "EPHEMERIS_TYPE": 0, "CLASSIFICATION_TYPE": "U", "NORAD_CAT_ID": 35062, "ELEMENT_SET_NO": 999, "REV_AT_EPOCH": 85676, "BSTAR": 0.0014843, "MEAN_MOTION_DOT": 3.607e-05, "MEAN_MOTION_DDOT": 0}, "tle": {"line1": "1 35062U 93036AHR 25359.20745308  .00003607  00000+0  14843-2 0  9997", "line2": "2 35062  74.0785  70.8899 0126046  66.8027 294.6336 14.23029012856767"}}, "geometry": {"type": "Point", "coordinates": [-105.18290492066843, -18.981023322072424]}}, {"type": "Feature", "properties": {"norad_id": 35065, "name": "COSMOS 2251 DEB", "group": "cosmos-2251-debris", "lat": -73.00055369184159, "lon": 58.90734839368787, "alt_km": 733.8887057659113, "timestamp": "2025-12-26T03:50:12.490144+00:00", "meta": {"OBJECT_NAME": "COSMOS 2251 DEB", "OBJECT_ID": "1993-036AHU", "EPOCH": "2025-12-19T06:12:25.656192", "MEAN_MOTION": 14.4574331, "ECCENTRICITY": 0.0020018, "INCLINATION": 74.0185, "RA_OF_ASC_NODE": 182.1668, "ARG_OF_PERICENTER": 306.5523, "MEAN_ANOMALY": 53.3791, "EPHEMERIS_TYPE": 0, "CLASSIFICATION_TYPE": "U", "NORAD_CAT_ID": 35065, "ELEMENT_SET_NO": 999, "REV_AT_EPOCH": 68445, "BSTAR": 0.00028971, "MEAN_MOTION_DOT": 1.002e-05, "MEAN_MOTION_DDOT": 0}, "tle": {"line1": "1 35065U 93036AHU 25353.25863028  .00001002  00000+0  28971-3 0  9994", "line2": "2 35065  74.0185 182.1668 0020018 306.5523  53.3791 14.45743310684450"}}, "geometry": {"type": "Point", "coordinates": [58.90734839368787, -73.00055369184159]}}, {"type": "Feature", "properties": {"norad_id": 35071, "name": "COSMOS 2251 DEB", "group": "cosmos-2251-debris", "lat": 33.88614922990774, "lon": 156.99791536730118, "alt_km": 505.53997995859936, "timestamp": "2025-12-26T03:50:12.490155+00:00", "meta": {"OBJECT_NAME": "COSMOS 2251 DEB", "OBJECT_ID": "1993-036AJA", "EPOCH": "2025-12-25T02:08:01.635648", "MEAN_MOTION": 15.03684095, "ECCENTRICITY": 0.00685428, "INCLINATION": 73.9325, "RA_OF_ASC_NODE": 148.0386, "ARG_OF_PERICENTER": 40.7776, "MEAN_ANOMALY": 319.8513, "EPHEMERIS_TYPE": 0, "CLASSIFICATION_TYPE": "U", "NORAD_CAT_ID": 35071, "ELEMENT_SET_NO": 999, "REV_AT_EPOCH": 67722, "BSTAR": 0.00076375103, "MEAN_MOTION_DOT": 0.00010995, "MEAN_MOTION_DDOT": 0}, "tle": {"line1": "1 35071U 93036AJA 25359.08890782  .00010995  00000+0  76375-3 0  9997", "line2": "2 35071  73.9325 148.0386 0068542  40.7776 319.8513 15.03684095677228"}}, "geometry": {"type": "Point", "coordinates": [156.99791536730118, 33.88614922990774]}}, {"type": "Feature", "properties": {"norad_id": 35073, "name": "COSMOS 2251 DEB", "group": "cosmos-2251-debris", "lat": 22.123175074358652, "lon": -50.104053813686704, "alt_km": 554.0944998800533, "timestamp": "2025-12-26T03:50:12.490165+00:00", "meta": {"OBJECT_NAME": "COSMOS 2251 DEB", "OBJECT_ID": "1993-036AJC", "EPOCH": "2025-12-23T13:22:12.377280", "MEAN_MOTION": 15.01382354, "ECCENTRICITY": 0.00112511, "INCLINATION": 74.0027, "RA_OF_ASC_NODE": 308.5087, "ARG_OF_PERICENTER": 50.3654, "MEAN_ANOMALY": 309.8525, "EPHEMERIS_TYPE": 0, "CLASSIFICATION_TYPE": "U", "NORAD_CAT_ID": 35073, "ELEMENT_SET_NO": 999, "REV_AT_EPOCH": 67641, "BSTAR": 0.0032564954, "MEAN_MOTION_DOT": 0.00042271, "MEAN_MOTION_DDOT": 0}, "tle": {"line1": "1 35073U 93036AJC 25357.55708770  .00042271  00000+0  32565-2 0  9998", "line2": "2 35073  74.0027 308.5087 0011251  50.3654 309.8525 15.01382354676412"}}, "geometry": {"type": "Point", "coordinates": [-50.104053813686704, 22.123175074358652]}}, {"type": "Feature", "properties": {"norad_id": 35284, "name": "COSMOS 2251 DEB", "group": "cosmos-2251-debris", "lat": -37.872894526809056, "lon": -133.13721449563445, "alt_km": 757.8418098850261, "timestamp": "2025-12-26T03:50:12.490175+00:00", "meta": {"OBJECT_NAME": "COSMOS 2251 DEB", "OBJECT_ID": "1993-036AJN", "EPOCH": "2025-12-25T01:37:46.180704", "MEAN_MOTION": 14.38330465, "ECCENTRICITY": 0.00172153, "INCLINATION": 74.0484, "RA_OF_ASC_NODE": 241.7251, "ARG_OF_PERICENTER": 316.3958, "MEAN_ANOMALY": 112.0584, "EPHEMERIS_TYPE": 0, "CLASSIFICATION_TYPE": "U", "NORAD_CAT_ID": 35284, "ELEMENT_SET_NO": 999, "REV_AT_EPOCH": 65703, "BSTAR": 0.00014946694, "MEAN_MOTION_DOT": 4.29e-06, "MEAN_MOTION_DDOT": 0}, "tle": {"line1": "1 35284U 93036AJN 25359.06789561  .00000429  00000+0  14947-3 0  9991", "line2": "2 35284  74.0484 241.7251 0017215 316.3958 112.0584 14.38330465657033"}}, "geometry": {"type": "Point", "coordinates": [-133.13721449563445, -37.872894526809056]}}, {"type": "Feature", "properties": {"norad_id": 35287, "name": "COSMOS 2251 DEB", "group": "cosmos-2251-debris", "lat": 40.390414057557926, "lon": -94.42162910691174, "alt_km": 759.9281290967747, "timestamp": "2025-12-26T03:50:12.490185+00:00", "meta": {"OBJECT_NAME": "COSMOS 2251 DEB", "OBJECT_ID": "1993-036AJR", "EPOCH": "2025-12-24T03:52:15.182976", "MEAN_MOTION": 14.36385545, "ECCENTRICITY": 0.00180686, "INCLINATION": 74.03, "RA_OF_ASC_NODE": 255.1485, "ARG_OF_PERICENTER": 349.3644, "MEAN_ANOMALY": 162.4382, "EPHEMERIS_TYPE": 0, "CLASSIFICATION_TYPE": "U", "NORAD_CAT_ID": 35287, "ELEMENT_SET_NO": 999, "REV_AT_EPOCH": 87056, "BSTAR": 0.00012586557, "MEAN_MOTION_DOT": 3.43e-06, "MEAN_MOTION_DDOT": 0}, "tle": {"line1": "1 35287U 93036AJR 25358.16128684  .00000343  00000+0  12587-3 0  9990", "line2": "2 35287  74.0300 255.1485 0018068 349.3644 162.4382 14.36385545870563"}}, "geometry": {"type": "Point", "coordinates": [-94.42162910691174, 40.390414057557926]}}, {"type": "Feature", "properties": {"norad_id": 35288, "name": "COSMOS 2251 DEB", "group": "cosmos-2251-debris", "lat": 19.793660528014406, "lon": 163.2544938962021, "alt_km": 661.581407084801, "timestamp": "2025-12-26T03:50:12.490196+00:00", "meta": {"OBJECT_NAME": "COSMOS 2251 DEB", "OBJECT_ID": "1993-036AJS", "EPOCH": "2025-12-23T06:18:10.717920", "MEAN_MOTION": 14.65565205, "ECCENTRICITY": 0.0039069, "INCLINATION": 73.9499, "RA_OF_ASC_NODE": 354.8064, "ARG_OF_PERICENTER": 226.8245, "MEAN_ANOMALY": 132.9657, "EPHEMERIS_TYPE": 0, "CLASSIFICATION_TYPE": "U", "NORAD_CAT_ID": 35288, "ELEMENT_SET_NO": 999, "REV_AT_EPOCH": 88032, "BSTAR": 0.0011220049, "MEAN_MOTION_DOT": 6.131e-05, "MEAN_MOTION_DDOT": 0}, "tle": {"line1": "1 35288U 93036AJS 25357.26262405  .00006131  00000+0  11220-2 0  9994", "line2": "2 35288  73.9499 354.8064 0039069 226.8245 132.9657 14.65565205880328"}}, "geometry": {"type": "Point", "coordinates": [163.2544938962021, 19.793660528014406]}}, {"type": "Feature", "properties": {"norad_id": 35290, "name": "COSMOS 2251 DEB", "group": "cosmos-2251-debris", "lat": 72.9540437412619, "lon": 102.24294616569796, "alt_km": 619.7953976568369, "timestamp": "2025-12-26T03:50:12.490206+00:00", "meta": {"OBJECT_NAME": "COSMOS 2251 DEB", "OBJECT_ID": "1993-036AJU", "EPOCH": "2025-12-24T09:17:55.218624", "MEAN_MOTION": 14.80672096, "ECCENTRICITY": 0.00012182, "INCLINATION": 74.005, "RA_OF_ASC_NODE": 36.4274, "ARG_OF_PERICENTER": 184.9871, "MEAN_ANOMALY": 175.1294, "EPHEMERIS_TYPE": 0, "CLASSIFICATION_TYPE": "U", "NORAD_CAT_ID": 35290, "ELEMENT_SET_NO": 999, "REV_AT_EPOCH": 88130, "BSTAR": 0.0018442179, "MEAN_MOTION_DOT": 0.00014174, "MEAN_MOTION_DDOT": 0}, "tle": {"line1": "1 35290U 93036AJU 25358.38744466  .00014174  00000+0  18442-2 0  9992", "line2": "2 35290  74.0050  36.4274 0001218 184.9871 175.1294 14.80672096881305"}}, "geometry": {"type": "Point", "coordinates": [102.24294616569796, 72.9540437412619]}}]}